HIMAWARI-8              
1 40267U 14060A   23355.52390937 -.00000265  00000+0  00000+0 0  9998
2 40267   0.0424 163.3707 0001121 110.0010 145.7237  1.00270636 33758
